NORAD_CAT_ID,OBJECT_NAME,OBJECT_TYPE,EPOCH,MEAN_MOTION,ECCENTRICITY,INCLINATION,RA_OF_ASC_NODE,ARG_OF_PERICENTER,MEAN_ANOMALY,BSTAR,MEAN_MOTION_DOT,MEAN_MOTION_DDOT,TLE_LINE0,TLE_LINE1,TLE_LINE2,SEMIMAJOR_AXIS,PERIOD,APOGEE,PERIGEE,DECAYED
50818.0,STARLINK-3336,PAYLOAD,2024-04-16 05:19:10,15.08846698,0.0001486,53.2198,37.7243,116.6445,243.4699,3.8624e-05,3.27e-06,0.0,0 STARLINK-3336,1 50818U 22001R   24107.22164843  .00000327  00000-0  38624-4 0  9990,2 50818  53.2198  37.7243 0001486 116.6445 243.4699 15.08846698125868,6917.86,95.437,540.753,538.697,0.0
50818.0,STARLINK-3336,PAYLOAD,2024-04-16 22:48:24,15.08845807,0.000129,53.2191,34.4537,118.2839,241.8284,3.8882e-05,3.31e-06,0.0,0 STARLINK-3336,1 50818U 22001R   24107.95028665  .00000331  00000-0  38882-4 0  9992,2 50818  53.2191  34.4537 0001290 118.2839 241.8284 15.08845807125974,6917.863,95.437,540.62,538.835,0.0
50818.0,STARLINK-3336,PAYLOAD,2024-04-17 00:23:47,15.08855355,0.0001547,53.2191,34.1586,131.5282,228.5843,0.00015671,2.208e-05,0.0,0 STARLINK-3336,1 50818U 22001R   24108.01651688  .00002208  00000-0  15671-3 0  9992,2 50818  53.2191  34.1586 0001547 131.5282 228.5843 15.08855355127266,6917.833,95.437,540.769,538.628,0.0
50818.0,STARLINK-3336,PAYLOAD,2024-04-18 01:49:59,15.08829697,0.0001442,53.2192,29.3984,104.7591,255.3561,-3.6309e-05,-8.66e-06,0.0,0 STARLINK-3336,1 50818U 22001R   24109.07638565 -.00000866  00000-0 -36309-4 0  9990,2 50818  53.2192  29.3984 0001442 104.7591 255.3561 15.08829697127427,6917.912,95.438,540.774,538.779,0.0
50818.0,STARLINK-3336,PAYLOAD,2024-04-18 22:30:00,15.08840192,0.0001495,53.2205,25.5404,114.6381,245.4767,-8.8471e-05,-1.696e-05,0.0,0 STARLINK-3336,1 50818U 22001R   24109.93750727 -.00001696  00000-0 -88471-4 0  9999,2 50818  53.2205  25.5404 0001495 114.6381 245.4767 15.08840192126275,6917.88,95.438,540.779,538.711,0.0
50818.0,STARLINK-3336,PAYLOAD,2024-04-19 03:16:08,15.08855111,0.0001302,53.2188,24.6464,114.7981,245.3146,3.187e-05,2.2e-06,0.0,0 STARLINK-3336,1 50818U 22001R   24110.13621212  .00000220  00000-0  31870-4 0  9990,2 50818  53.2188  24.6464 0001302 114.7981 245.3146 15.08855111127587,6917.834,95.437,540.6,538.798,0.0
50818.0,STARLINK-3336,PAYLOAD,2024-04-19 17:34:37,15.08837462,0.0001474,53.2202,21.9714,97.278,262.838,0.00023241,3.413e-05,0.0,0 STARLINK-3336,1 50818U 22001R   24110.73238320  .00003413  00000-0  23241-3 0  9999,2 50818  53.2202  21.9714 0001474  97.2780 262.8380 15.08837462127677,6917.888,95.438,540.773,538.733,0.0
50818.0,STARLINK-3336,PAYLOAD,2024-04-19 22:20:47,15.08845775,0.0001517,53.2209,21.0814,107.7726,252.3432,0.00018249,2.618e-05,0.0,0 STARLINK-3336,1 50818U 22001R   24110.93109954  .00002618  00000-0  18249-3 0  9999,2 50818  53.2209  21.0814 0001517 107.7726 252.3432 15.08845775126421,6917.863,95.437,540.777,538.678,0.0
50818.0,STARLINK-3336,PAYLOAD,2024-04-20 03:06:54,15.08872839,0.0001305,53.2204,20.1775,103.3815,256.7323,0.00041453,6.321e-05,0.0,0 STARLINK-3336,1 50818U 22001R   24111.12979369  .00006321  00000-0  41453-3 0  9994,2 50818  53.2204  20.1775 0001305 103.3815 256.7323 15.08872839127731,6917.78,95.435,540.548,538.742,0.0
50818.0,STARLINK-3336,PAYLOAD,2024-04-21 04:33:08,15.08828965,0.0001477,53.2203,15.4309,91.5672,268.5489,-0.00013449,-2.427e-05,0.0,0 STARLINK-3336,1 50818U 22001R   24112.18968140 -.00002427  00000-0 -13449-3 0  9995,2 50818  53.2203  15.4309 0001477  91.5672 268.5489 15.08828965127891,6917.914,95.438,540.801,538.757,0.0
50818.0,STARLINK-3336,PAYLOAD,2024-04-21 22:02:22,15.08846714,0.0001494,53.2202,12.1586,71.507,288.6085,-5.2428e-05,-1.122e-05,0.0,0 STARLINK-3336,1 50818U 22001R   24112.91831082 -.00001122  00000-0 -52428-4 0  9992,2 50818  53.2202  12.1586 0001494  71.5070 288.6085 15.08846714126728,6917.86,95.437,540.758,538.691,0.0
50818.0,STARLINK-3336,PAYLOAD,2024-04-22 02:48:29,15.08874832,0.0001669,53.221,11.259,96.7437,263.3745,3.1719e-05,2.17e-06,0.0,0 STARLINK-3336,1 50818U 22001R   24113.11701002  .00000217  00000-0  31719-4 0  9995,2 50818  53.2210  11.2590 0001669  96.7437 263.3745 15.08874832128033,6917.774,95.435,540.793,538.484,0.0
50818.0,STARLINK-3336,PAYLOAD,2024-04-22 20:17:46,15.08828632,0.0001742,53.22,7.9983,99.8055,260.3133,0.00021254,3.095e-05,0.0,0 STARLINK-3336,1 50818U 22001R   24113.84567297  .00003095  00000-0  21254-3 0  9990,2 50818  53.2200   7.9983 0001742  99.8055 260.3133 15.08828632128149,6917.915,95.438,540.985,538.575,0.0
50818.0,STARLINK-3336,PAYLOAD,2024-04-22 21:53:09,15.08832226,0.0001733,53.2201,7.7005,96.871,263.248,0.00021628,3.155e-05,0.0,0 STARLINK-3336,1 50818U 22001R   24113.91191212  .00003155  00000-0  21628-3 0  9990,2 50818  53.2201   7.7005 0001733  96.8710 263.2480 15.08832226126877,6917.904,95.438,540.968,538.57,0.0
50818.0,STARLINK-3336,PAYLOAD,2024-04-22 23:28:32,15.08834063,0.0001862,53.2204,7.4022,101.1121,259.008,0.00026422,3.919e-05,0.0,0 STARLINK-3336,1 50818U 22001R   24113.97815024  .00003919  00000-0  26422-3 0  9995,2 50818  53.2204   7.4022 0001862 101.1121 259.0080 15.08834063126886,6917.899,95.438,541.052,538.475,0.0
50818.0,STARLINK-3336,PAYLOAD,2024-04-23 20:08:32,15.08854912,0.0001967,53.2204,3.5371,119.5924,240.5264,-0.00012416,-2.265e-05,0.0,0 STARLINK-3336,1 50818U 22001R   24114.83926902 -.00002265  00000-0 -12416-3 0  9992,2 50818  53.2204   3.5371 0001967 119.5924 240.5264 15.08854912128291,6917.835,95.437,541.061,538.339,0.0
50818.0,STARLINK-3336,PAYLOAD,2024-04-23 21:43:55,15.08855248,0.000185,53.2206,3.2347,107.0521,253.0674,-0.00010739,-1.998e-05,0.0,0 STARLINK-3336,1 50818U 22001R   24114.90550692 -.00001998  00000-0 -10739-3 0  9997,2 50818  53.2206   3.2347 0001850 107.0521 253.0674 15.08855248127026,6917.834,95.437,540.979,538.419,0.0
50818.0,STARLINK-3336,PAYLOAD,2024-04-24 02:30:04,15.08858592,0.0001737,53.2201,2.3372,96.2756,263.8434,-4.8925e-06,-3.66e-06,0.0,0 STARLINK-3336,1 50818U 22001R   24115.10422079 -.00000366  00000-0 -48925-5 0  9995,2 50818  53.2201   2.3372 0001737  96.2756 263.8434 15.08858592128335,6917.824,95.436,540.89,538.487,0.0
50818.0,STARLINK-3336,PAYLOAD,2024-04-24 19:59:21,15.08828763,0.0001195,53.2204,359.0772,86.8312,273.2816,-6.8259e-05,-1.374e-05,0.0,0 STARLINK-3336,1 50818U 22001R   24115.83288269 -.00001374  00000-0 -68259-4 0  9997,2 50818  53.2204 359.0772 0001195  86.8312 273.2816 15.08828763128443,6917.915,95.438,540.606,538.953,0.0
50818.0,STARLINK-3336,PAYLOAD,2024-04-24 21:34:43,15.08837745,0.0001508,53.2186,358.7738,111.2523,248.863,-6.3748e-05,-1.302e-05,0.0,0 STARLINK-3336,1 50818U 22001R   24115.89911506 -.00001302  00000-0 -63748-4 0  9999,2 50818  53.2186 358.7738 0001508 111.2523 248.8630 15.08837745127176,6917.887,95.438,540.795,538.709,0.0
50818.0,STARLINK-3336,PAYLOAD,2024-04-25 21:25:30,15.08841307,0.0001401,53.2195,354.3111,108.8391,251.2753,1.694e-05,-1.8e-07,0.0,0 STARLINK-3336,1 50818U 22001R   24116.89271385 -.00000018  00000-0  16940-4 0  9998,2 50818  53.2195 354.3111 0001401 108.8391 251.2753 15.08841307127320,6917.876,95.437,540.711,538.772,0.0
50818.0,STARLINK-3336,PAYLOAD,2024-04-26 00:36:16,15.08846952,0.0001278,53.2195,353.7206,98.8075,261.3062,4.1001e-05,3.65e-06,0.0,0 STARLINK-3336,1 50818U 22001R   24117.02519085  .00000365  00000-0  41001-4 0  9996,2 50818  53.2195 353.7206 0001278  98.8075 261.3062 15.08846952128627,6917.859,95.437,540.608,538.84,0.0
50818.0,STARLINK-3336,PAYLOAD,2024-04-26 08:33:12,15.08848226,0.000124,53.2198,352.2327,89.277,270.8365,-1.9613e-05,-6e-06,0.0,0 STARLINK-3336,1 50818U 22001R   24117.35638989 -.00000600  00000-0 -19613-4 0  9995,2 50818  53.2198 352.2327 0001240  89.2770 270.8365 15.08848226127393,6917.855,95.437,540.578,538.862,0.0
50818.0,STARLINK-3336,PAYLOAD,2024-04-26 19:40:54,15.08839017,0.0001518,53.2211,350.1549,116.6237,243.4911,4.558e-06,-2.15e-06,0.0,0 STARLINK-3336,1 50818U 22001R   24117.82007857 -.00000215  00000-0  45580-5 0  9995,2 50818  53.2211 350.1549 0001518 116.6237 243.4911 15.08839017128744,6917.883,95.438,540.799,538.698,0.0
50818.0,STARLINK-3336,PAYLOAD,2024-04-27 02:02:25,15.08854082,0.0001072,53.2181,348.9599,105.2905,254.8205,0.00020822,3.029e-05,0.0,0 STARLINK-3336,1 50818U 22001R   24118.08502242  .00003029  00000-0  20822-3 0  9997,2 50818  53.2181 348.9599 0001072 105.2905 254.8205 15.08854082128786,6917.837,95.437,540.444,538.961,0.0
50818.0,STARLINK-3336,PAYLOAD,2024-04-27 08:23:59,15.08841326,0.0001547,53.2185,347.7693,99.8455,260.2711,0.00012143,1.645e-05,0.0,0 STARLINK-3336,1 50818U 22001R   24118.34999321  .00001645  00000-0  12143-3 0  9993,2 50818  53.2185 347.7693 0001547  99.8455 260.2711 15.08841326128822,6917.876,95.437,540.812,538.671,0.0
50818.0,STARLINK-3336,PAYLOAD,2024-04-27 21:07:05,15.08834183,0.0001582,53.2209,345.3909,74.8425,285.2742,-3.8732e-05,-9.04e-06,0.0,0 STARLINK-3336,1 50818U 22001R   24118.87992412 -.00000904  00000-0 -38732-4 0  9997,2 50818  53.2209 345.3909 0001582  74.8425 285.2742 15.08834183128905,6917.898,95.438,540.858,538.669,0.0
50818.0,STARLINK-3336,PAYLOAD,2024-04-28 00:17:51,15.08837398,0.0001402,53.2198,344.7975,73.5822,286.5324,-6.7856e-06,-3.96e-06,0.0,0 STARLINK-3336,1 50818U 22001R   24119.01240081 -.00000396  00000-0 -67856-5 0  9997,2 50818  53.2198 344.7975 0001402  73.5822 286.5324 15.08837398127647,6917.888,95.438,540.723,538.783,0.0
50818.0,STARLINK-3336,PAYLOAD,2024-04-28 20:57:51,15.08844607,9.91e-05,53.2174,340.9316,104.6154,255.4948,-6.4443e-05,-1.313e-05,0.0,0 STARLINK-3336,1 50818U 22001R   24119.87351742 -.00001313  00000-0 -64443-4 0  9996,2 50818  53.2174 340.9316 0000991 104.6154 255.4948 15.08844607129059,6917.866,95.437,540.417,539.046,0.0
50818.0,STARLINK-3336,PAYLOAD,2024-04-28 22:33:14,15.08847361,0.0001023,53.2179,340.6344,102.7864,257.3243,-4.0497e-05,-9.32e-06,0.0,0 STARLINK-3336,1 50818U 22001R   24119.93975493 -.00000932  00000-0 -40497-4 0  9997,2 50818  53.2179 340.6344 0001023 102.7864 257.3243 15.08847361127783,6917.858,95.437,540.431,539.015,0.0
